NORAD_CAT_ID,OBJECT_NAME,OBJECT_TYPE,EPOCH,MEAN_MOTION,ECCENTRICITY,INCLINATION,RA_OF_ASC_NODE,ARG_OF_PERICENTER,MEAN_ANOMALY,BSTAR,MEAN_MOTION_DOT,MEAN_MOTION_DDOT,TLE_LINE0,TLE_LINE1,TLE_LINE2,SEMIMAJOR_AXIS,PERIOD,APOGEE,PERIGEE,DECAYED
52127.0,STARLINK-3715,PAYLOAD,2023-12-06 12:39:09,15.08845849,0.0001469,53.215,168.9281,93.0721,267.0439,0.00011035,1.469e-05,0.0,0 STARLINK-3715,1 52127U 22029AR  23340.52719872  .00001469  00000-0  11035-3 0  9998,2 52127  53.2150 168.9281 0001469  93.0721 267.0439 15.08845849 96505,6917.863,95.437,540.744,538.711,0.0
52127.0,STARLINK-3715,PAYLOAD,2023-12-06 22:11:28,15.08848413,0.0001507,53.215,167.1438,94.7763,265.3402,0.00018623,2.678e-05,0.0,0 STARLINK-3715,1 52127U 22029AR  23340.92463909  .00002678  00000-0  18623-3 0  9992,2 52127  53.2150 167.1438 0001507  94.7763 265.3402 15.08848413 96564,6917.855,95.437,540.762,538.677,0.0
52127.0,STARLINK-3715,PAYLOAD,2023-12-07 12:29:57,15.08842405,0.0001425,53.2158,164.4687,101.0879,259.0274,0.00010601,1.4e-05,0.0,0 STARLINK-3715,1 52127U 22029AR  23341.52080293  .00001400  00000-0  10601-3 0  9990,2 52127  53.2158 164.4687 0001425 101.0879 259.0274 15.08842405 96659,6917.873,95.437,540.724,538.752,0.0
52127.0,STARLINK-3715,PAYLOAD,2023-12-08 12:20:44,15.08842589,0.0001684,53.2155,160.0112,82.5844,277.534,7.2783e-05,8.71e-06,0.0,0 STARLINK-3715,1 52127U 22029AR  23342.51440195  .00000871  00000-0  72783-4 0  9992,2 52127  53.2155 160.0112 0001684  82.5844 277.5340 15.08842589 96802,6917.872,95.437,540.902,538.573,0.0
52127.0,STARLINK-3715,PAYLOAD,2023-12-08 15:31:30,15.08844023,0.0001768,53.2139,159.4124,111.907,248.211,-5.5527e-06,-3.77e-06,0.0,0 STARLINK-3715,1 52127U 22029AR  23342.64687797 -.00000377  00000-0 -55527-5 0  9998,2 52127  53.2139 159.4124 0001768 111.9070 248.2110 15.08844023 96827,6917.868,95.437,540.956,538.51,0.0
52127.0,STARLINK-3715,PAYLOAD,2023-12-08 21:53:02,15.08844432,0.0001725,53.2139,158.223,109.7266,250.3913,-5.3464e-06,-3.73e-06,0.0,0 STARLINK-3715,1 52127U 22029AR  23342.91183668 -.00000373  00000-0 -53464-5 0  9990,2 52127  53.2139 158.2230 0001725 109.7266 250.3913 15.08844432 96860,6917.867,95.437,540.925,538.539,0.0
52127.0,STARLINK-3715,PAYLOAD,2023-12-09 15:22:17,15.08837038,0.0001852,53.2152,154.9489,117.0363,243.0818,-3.7436e-06,-3.48e-06,0.0,0 STARLINK-3715,1 52127U 22029AR  23343.64048052 -.00000348  00000-0 -37436-5 0  9991,2 52127  53.2152 154.9489 0001852 117.0363 243.0818 15.08837038 96974,6917.889,95.438,541.036,538.473,0.0
52127.0,STARLINK-3715,PAYLOAD,2023-12-10 12:02:18,15.08830182,0.0002486,53.2136,151.0825,111.7284,248.3973,0.00019375,2.796e-05,0.0,0 STARLINK-3715,1 52127U 22029AR  23344.50159907  .00002796  00000-0  19375-3 0  9996,2 52127  53.2136 151.0825 0002486 111.7284 248.3973 15.08830182 97104,6917.91,95.438,541.495,538.056,0.0
52127.0,STARLINK-3715,PAYLOAD,2023-12-10 16:48:27,15.08842143,0.0001207,53.2158,150.1939,95.7498,264.3632,-6.2231e-07,-2.98e-06,0.0,0 STARLINK-3715,1 52127U 22029AR  23344.70031878 -.00000298  00000-0 -62231-6 0  9993,2 52127  53.2158 150.1939 0001207  95.7498 264.3632 15.08842143 97135,6917.874,95.437,540.574,538.904,0.0
52127.0,STARLINK-3715,PAYLOAD,2023-12-11 18:14:37,15.08839651,0.0001234,53.2157,145.4372,89.9887,270.1247,6.1835e-05,6.96e-06,0.0,0 STARLINK-3715,1 52127U 22029AR  23345.76016066  .00000696  00000-0  61835-4 0  9999,2 52127  53.2157 145.4372 0001234  89.9887 270.1247 15.08839651 97293,6917.881,95.438,540.6,538.893,0.0
52127.0,STARLINK-3715,PAYLOAD,2023-12-12 18:05:25,15.08839724,0.0001425,53.2161,140.9779,74.63,285.485,4.4952e-05,4.28e-06,0.0,0 STARLINK-3715,1 52127U 22029AR  23346.75376323  .00000428  00000-0  44952-4 0  9998,2 52127  53.2161 140.9779 0001425  74.6300 285.4850 15.08839724 97449,6917.881,95.438,540.732,538.76,0.0
52127.0,STARLINK-3715,PAYLOAD,2023-12-13 14:45:25,15.08841444,0.0001278,53.2159,137.1131,83.799,276.3148,4.4327e-05,4.18e-06,0.0,0 STARLINK-3715,1 52127U 22029AR  23347.61488143  .00000418  00000-0  44327-4 0  9993,2 52127  53.2159 137.1131 0001278  83.7990 276.3148 15.08841444 97573,6917.876,95.437,540.625,538.857,0.0
52127.0,STARLINK-3715,PAYLOAD,2023-12-13 17:56:11,15.08843039,0.0001406,53.2166,136.5198,76.3408,283.774,6.4535e-05,7.39e-06,0.0,0 STARLINK-3715,1 52127U 22029AR  23347.74736036  .00000739  00000-0  64535-4 0  9993,2 52127  53.2166 136.5198 0001406  76.3408 283.7740 15.08843039 97596,6917.871,95.437,540.709,538.763,0.0
52127.0,STARLINK-3715,PAYLOAD,2023-12-14 14:36:13,15.08798867,0.0001341,53.2172,132.6549,53.6406,306.471,0.00059723,9.219e-05,0.0,0 STARLINK-3715,1 52127U 22029AR  23348.60848778  .00009219  00000-0  59723-3 0  9990,2 52127  53.2172 132.6549 0001341  53.6406 306.4710 15.08798867 97727,6918.006,95.44,540.799,538.943,0.0
52127.0,STARLINK-3715,PAYLOAD,2023-12-14 16:11:36,15.08796493,0.0001259,53.2171,132.3593,55.7463,304.3648,0.00064543,9.987e-05,0.0,0 STARLINK-3715,1 52127U 22029AR  23348.67472894  .00009987  00000-0  64543-3 0  9997,2 52127  53.2171 132.3593 0001259  55.7463 304.3648 15.08796493 97737,6918.013,95.44,540.749,539.007,0.0
52127.0,STARLINK-3715,PAYLOAD,2023-12-15 14:27:00,15.08836717,0.0001292,53.217,128.1933,106.041,254.0725,-5.547e-05,-1.17e-05,0.0,0 STARLINK-3715,1 52127U 22029AR  23349.60208809 -.00001170  00000-0 -55470-4 0  9992,2 52127  53.2170 128.1933 0001292 106.0410 254.0725 15.08836717 97872,6917.89,95.438,540.649,538.862,0.0
52127.0,STARLINK-3715,PAYLOAD,2023-12-15 16:02:23,15.08838244,0.0001292,53.2169,127.8928,83.1285,276.9854,-6.4691e-05,-1.317e-05,0.0,0 STARLINK-3715,1 52127U 22029AR  23349.66832816 -.00001317  00000-0 -64691-4 0  9997,2 52127  53.2169 127.8928 0001292  83.1285 276.9854 15.08838244 97889,6917.886,95.438,540.645,538.857,0.0
52127.0,STARLINK-3715,PAYLOAD,2023-12-16 14:17:46,15.0884819,0.0001176,53.2169,123.7318,87.629,272.4837,1.6836e-05,-2e-07,0.0,0 STARLINK-3715,1 52127U 22029AR  23350.59568070 -.00000020  00000-0  16836-4 0  9996,2 52127  53.2169 123.7318 0001176  87.6290 272.4837 15.08848190 98023,6917.855,95.437,540.534,538.907,0.0
52127.0,STARLINK-3715,PAYLOAD,2023-12-16 15:53:09,15.08849749,0.0001226,53.2172,123.4334,91.3162,268.797,4.284e-05,3.94e-06,0.0,0 STARLINK-3715,1 52127U 22029AR  23350.66191860  .00000394  00000-0  42840-4 0  9990,2 52127  53.2172 123.4334 0001226  91.3162 268.7970 15.08849749 98036,6917.851,95.437,540.564,538.867,0.0
52127.0,STARLINK-3715,PAYLOAD,2023-12-17 12:33:11,15.0883565,0.0001236,53.217,119.5669,102.3385,257.7745,3.8005e-05,3.17e-06,0.0,0 STARLINK-3715,1 52127U 22029AR  23351.52304908  .00000317  00000-0  38005-4 0  9998,2 52127  53.2170 119.5669 0001236 102.3385 257.7745 15.08835650 98160,6917.894,95.438,540.614,538.904,0.0
52127.0,STARLINK-3715,PAYLOAD,2023-12-17 14:08:34,15.08837246,0.0001277,53.2173,119.2698,102.4985,257.615,5.2409e-05,5.46e-06,0.0,0 STARLINK-3715,1 52127U 22029AR  23351.58928806  .00000546  00000-0  52409-4 0  9991,2 52127  53.2173 119.2698 0001277 102.4985 257.6150 15.08837246 98177,6917.889,95.438,540.637,538.87,0.0
52127.0,STARLINK-3715,PAYLOAD,2023-12-17 15:43:57,15.08838064,0.0001279,53.2173,118.9723,104.0348,256.0786,5.9751e-05,6.63e-06,0.0,0 STARLINK-3715,1 52127U 22029AR  23351.65552740  .00000663  00000-0  59751-4 0  9996,2 52127  53.2173 118.9723 0001279 104.0348 256.0786 15.08838064 98183,6917.886,95.438,540.636,538.867,0.0
52127.0,STARLINK-3715,PAYLOAD,2023-12-18 12:23:57,15.08843815,0.0001337,53.2174,115.105,98.9527,261.1616,0.00018202,2.61e-05,0.0,0 STARLINK-3715,1 52127U 22029AR  23352.51663908  .00002610  00000-0  18202-3 0  9990,2 52127  53.2174 115.1050 0001337  98.9527 261.1616 15.08843815 98315,6917.869,95.437,540.659,538.809,0.0
52127.0,STARLINK-3715,PAYLOAD,2023-12-18 13:59:20,15.08848346,0.0001299,53.2172,114.8068,95.2786,264.8354,0.00016285,2.305e-05,0.0,0 STARLINK-3715,1 52127U 22029AR  23352.58287696  .00002305  00000-0  16285-3 0  9993,2 52127  53.2172 114.8068 0001299  95.2786 264.8354 15.08848346 98326,6917.855,95.437,540.619,538.821,0.0
52127.0,STARLINK-3715,PAYLOAD,2023-12-19 12:14:45,15.08840484,0.0001345,53.2175,110.6456,95.8606,264.2539,-2.4974e-06,-3.28e-06,0.0,0 STARLINK-3715,1 52127U 22029AR  23353.51024700 -.00000328  00000-0 -24974-5 0  9993,2 52127  53.2175 110.6456 0001345  95.8606 264.2539 15.08840484 98462,6917.879,95.438,540.674,538.813,0.0
52127.0,STARLINK-3715,PAYLOAD,2023-12-19 13:50:08,15.08825705,0.0001386,53.2172,110.3478,67.5707,292.5432,0.00018515,2.659e-05,0.0,0 STARLINK-3715,1 52127U 22029AR  23353.57649057  .00002659  00000-0  18515-3 0  9996,2 52127  53.2172 110.3478 0001386  67.5707 292.5432 15.08825705 98479,6917.924,95.438,540.748,538.83,0.0
52127.0,STARLINK-3715,PAYLOAD,2023-12-20 12:05:33,15.08819466,0.0001691,53.2182,106.1889,64.1595,295.9571,0.00014903,2.083e-05,0.0,0 STARLINK-3715,1 52127U 22029AR  23354.50385737  .00002083  00000-0  14903-3 0  9990,2 52127  53.2182 106.1889 0001691  64.1595 295.9571 15.08819466 98610,6917.943,95.439,540.978,538.638,0.0
52127.0,STARLINK-3715,PAYLOAD,2023-12-20 13:40:55,15.08839074,0.0001495,53.2188,105.8939,85.4836,274.6327,-7.0215e-05,-1.405e-05,0.0,0 STARLINK-3715,1 52127U 22029AR  23354.57009179 -.00001405  00000-0 -70215-4 0  9998,2 52127  53.2188 105.8939 0001495  85.4836 274.6327 15.08839074 98625,6917.883,95.438,540.782,538.714,0.0
52127.0,STARLINK-3715,PAYLOAD,2023-12-20 15:16:18,15.08853881,0.0001471,53.218,105.593,106.2048,253.9106,-0.00015792,-2.801e-05,0.0,0 STARLINK-3715,1 52127U 22029AR  23354.63632560 -.00002801  00000-0 -15792-3 0  9990,2 52127  53.2180 105.5930 0001471 106.2048 253.9106 15.08853881 98634,6917.838,95.437,540.721,538.685,0.0
52127.0,STARLINK-3715,PAYLOAD,2023-12-21 11:56:20,15.08835964,0.0001876,53.2191,101.7244,55.8732,304.2437,5.3185e-05,5.58e-06,0.0,0 STARLINK-3715,1 52127U 22029AR  23355.49745553  .00000558  00000-0  53185-4 0  9996,2 52127  53.2191 101.7244 0001876  55.8732 304.2437 15.08835964 98763,6917.893,95.438,541.056,538.46,0.0
